ONEWEB-0228             
1 48780U 21045P   23364.24253729 -.00002415  00000+0 -64502-2 0  9993
2 48780  87.8990  78.3338 0001937 103.7169 256.4177 13.15555209126006
